[{"OBJECT_NAME":"SHIYAN-6 01 (SY-6 01)","OBJECT_ID":"2018-094B","EPOCH":"2026-03-09T23:04:36.967872","MEAN_MOTION":15.28649156,"ECCENTRICITY":0.00144834,"INCLINATION":97.3669,"RA_OF_ASC_NODE":84.0964,"ARG_OF_PERICENTER":135.6758,"MEAN_ANOMALY":224.5644,"EPHEMERIS_TYPE":0,"CLASSIFICATION_TYPE":"U","NORAD_CAT_ID":43711,"ELEMENT_SET_NO":999,"REV_AT_EPOCH":40632,"BSTAR":0.00024768444,"MEAN_MOTION_DOT":6.847e-5,"MEAN_MOTION_DDOT":0},{"OBJECT_NAME":"STARLINK-2231","OBJECT_ID":"2021-041AA","EPOCH":"2026-03-09T10:44:22.540704","MEAN_MOTION":15.30217025,"ECCENTRICITY":0.00012518,"INCLINATION":53.1594,"RA_OF_ASC_NODE":128.014,"ARG_OF_PERICENTER":77.7398,"MEAN_ANOMALY":282.3743,"EPHEMERIS_TYPE":0,"CLASSIFICATION_TYPE":"U","NORAD_CAT_ID":48577,"ELEMENT_SET_NO":999,"REV_AT_EPOCH":26523,"BSTAR":0.00013810367,"MEAN_MOTION_DOT":3.735e-5,"MEAN_MOTION_DDOT":0}]
